BEIDOU-2 IGSO-1 (C06)   
1 36828U 10036A   24039.81497977 -.00000144  00000+0  00000+0 0  9995
2 36828  54.2482 170.7397 0039240 193.5913 175.6317  1.00263883 49595
BEIDOU-2 G4 (C04)       
1 37210U 10057A   24039.82855294 -.00000111  00000+0  00000+0 0  9999
2 37210   1.5359  66.5263 0006488 200.1123 330.1449  1.00270891 48678
BEIDOU-2 IGSO-2 (C07)   
1 37256U 10068A   24039.59952699 -.00000151  00000+0  00000+0 0  9996
2 37256  49.1158 282.3973 0031172 213.0359 325.2251  1.00291657 48164
BEIDOU-2 IGSO-3 (C08)   
1 37384U 11013A   24039.45985852 -.00000142  00000+0  00000+0 0  9991
2 37384  61.1667  48.3623 0027961 184.3254 178.2168  1.00291188 47040
BEIDOU-2 IGSO-4 (C09)   
1 37763U 11038A   24039.85856223 -.00000055  00000+0  00000+0 0  9995
2 37763  54.5558 173.3234 0118663 226.7867 142.3480  1.00285851 46031
BEIDOU-2 IGSO-5 (C10)   
1 37948U 11073A   24039.63937951 -.00000103  00000+0  00000+0 0  9997
2 37948  49.2457 282.0763 0093533 220.5524 320.8939  1.00280456 44519
BEIDOU-2 G5 (C05)       
1 38091U 12008A   24039.87998333  .00000057  00000+0  00000+0 0  9990
2 38091   2.0875  70.5166 0008892 228.7928 214.6479  1.00271896 43751
BEIDOU-2 M3 (C11)       
1 38250U 12018A   24039.52645801 -.00000072  00000+0  00000+0 0  9997
2 38250  56.4213 333.6551 0023557 267.6721  92.0708  1.86231134 79933
BEIDOU-2 M4 (C12)       
1 38251U 12018B   24039.45722192 -.00000071  00000+0  00000+0 0  9998
2 38251  56.3300 332.9389 0014621 273.6193  86.2269  1.86231910 79932
BEIDOU-2 M6 (C14)       
1 38775U 12050B   24039.16688665  .00000007  00000+0  00000+0 0  9997
2 38775  55.8092  91.5110 0013149 326.9922  33.0053  1.86230992 77298
BEIDOU-2 G6 (C02)       
1 38953U 12059A   24039.89702094 -.00000175  00000+0  00000+0 0  9994
2 38953   2.2284  81.3602 0010241 293.9044 170.1809  1.00270515 41290
BEIDOU-3S IGSO-1S (C31) 
1 40549U 15019A   24039.70268205 -.00000158  00000+0  00000+0 0  9999
2 40549  50.8115 305.7205 0035103 194.1649 347.1684  1.00277249 32451
BEIDOU-3S M2S (C58)     
1 40748U 15037A   24038.04772309 -.00000071  00000+0  00000+0 0  9995
2 40748  55.5666 331.4886 0010730 266.0826  93.8081  1.86233021 58088
BEIDOU-3S M1S (C57)     
1 40749U 15037B   24038.31799170 -.00000071  00000+0  00000+0 0  9991
2 40749  55.5695 331.4662 0006865 332.7648  27.2126  1.86232856 58086
BEIDOU-3S IGSO-2S (C56) 
1 40938U 15053A   24039.60074828 -.00000064  00000+0  00000+0 0  9990
2 40938  50.5591 268.9162 0047505 188.1273 351.4983  1.00291974 30735
BEIDOU-2 IGSO-6 (C13)   
1 41434U 16021A   24039.99771503 -.00000110  00000+0  00000+0 0  9996
2 41434  58.9896  46.6546 0051318 224.4830 319.2648  1.00294308 28858
BEIDOU-2 G7 (C03)       
1 41586U 16037A   24039.87277444 -.00000354  00000+0  00000+0 0  9993
2 41586   1.5957  67.7041 0009325 317.8907 177.5212  1.00276850 28174
BEIDOU-3 M1 (C19)       
1 43001U 17069A   24039.47001280  .00000009  00000+0  00000+0 0  9998
2 43001  55.9598  91.5806 0011431 292.4365  67.5232  1.86231115 42594
BEIDOU-3 M2 (C20)       
1 43002U 17069B   24038.33308431  .00000002  00000+0  00000+0 0  9994
2 43002  55.9586  91.6543 0008604 311.8824  48.1201  1.86230997 42560
BEIDOU-3 M7 (C27)       
1 43107U 18003A   24039.15694038 -.00000071  00000+0  00000+0 0  9998
2 43107  55.0233 332.0988 0004085  47.5512 312.4973  1.86232225 41341
BEIDOU-3 M8 (C28)       
1 43108U 18003B   24038.02240962 -.00000073  00000+0  00000+0 0  9999
2 43108  55.0169 332.1240 0004032 279.5622  80.4047  1.86230712 41324
BEIDOU-3 M4 (C22)       
1 43207U 18018A   24039.00110254  .00000007  00000+0  00000+0 0  9990
2 43207  55.9184  91.6899 0005321 331.0346  29.0147  1.86231064 40720
BEIDOU-3 M3 (C21)       
1 43208U 18018B   24039.60464839  .00000010  00000+0  00000+0 0  9992
2 43208  55.9182  91.6740 0008912 300.7874  59.2060  1.86231195 40737
BEIDOU-3 M9 (C29)       
1 43245U 18029A   24039.28973075 -.00000069  00000+0  00000+0 0  9991
2 43245  54.9114 329.8147 0001623 317.1709  42.8342  1.86232214 39888
BEIDOU-3 M10 (C30)      
1 43246U 18029B   24038.68261520 -.00000069  00000+0  00000+0 0  9990
2 43246  54.9089 329.8634 0004999 357.2170   2.7965  1.86232562 39856
BEIDOU-2 IGSO-7 (C16)   
1 43539U 18057A   24039.81691737 -.00000147  00000+0  00000+0 0  9996
2 43539  55.1381 170.4989 0069978 230.6212 142.4746  1.00292040 20527
BEIDOU-3 M5 (C23)       
1 43581U 18062A   24039.97765267  .00000071  00000+0  00000+0 0  9991
2 43581  54.1520 211.5349 0001420 342.8200  17.1544  1.86228529 37635
BEIDOU-3 M6 (C24)       
1 43582U 18062B   24038.77018034  .00000085  00000+0  00000+0 0  9997
2 43582  54.1516 211.5656 0006872  40.4907 319.5491  1.86229487 37615
BEIDOU-3 M12 (C26)      
1 43602U 18067A   24037.09416765  .00000103  00000+0  00000+0 0  9993
2 43602  54.2410 210.2922 0008075  31.5310 328.5140  1.86231583 37060
BEIDOU-3 M11 (C25)      
1 43603U 18067B   24035.61718937  .00000113  00000+0  00000+0 0  9997
2 43603  54.2383 210.3078 0004810  28.7986 331.2286  1.86231532 37069
BEIDOU-3 M13 (C32)      
1 43622U 18072A   24039.33582357  .00000009  00000+0  00000+0 0  9996
2 43622  55.8893  91.2135 0008079 287.9885  72.0037  1.86231059 36642
BEIDOU-3 M14 (C33)      
1 43623U 18072B   24039.20127659  .00000008  00000+0  00000+0 0  9992
2 43623  55.8910  91.2110 0005338 306.4287  53.6019  1.86231079 36630
BEIDOU-3 M16 (C35)      
1 43647U 18078A   24038.82760585 -.00000069  00000+0  00000+0 0  9990
2 43647  54.8079 329.9397 0008123   7.8769 352.1523  1.86232132 36134
BEIDOU-3 M15 (C34)      
1 43648U 18078B   24036.27197350 -.00000074  00000+0  00000+0 0  9998
2 43648  54.8055 330.0313 0004973   9.7243 350.2996  1.86232048 36114
BEIDOU-3 G1 (C59)       
1 43683U 18085A   24039.89618470 -.00000279  00000+0  00000+0 0  9994
2 43683   1.8785 115.2775 0002166 325.7816 160.0168  1.00275911 19446
BEIDOU-3 M17 (C36)      
1 43706U 18093A   24038.03134255  .00000094  00000+0  00000+0 0  9992
2 43706  54.2346 211.5302 0006230 292.7796  67.1483  1.86228219 35504
BEIDOU-3 M18 (C37)      
1 43707U 18093B   24038.97160857  .00000083  00000+0  00000+0 0  9991
2 43707  54.2355 211.4898 0005854 334.6768  25.2815  1.86229677 35514
BEIDOU-2 G8 (C01)       
1 44231U 19027A   24039.96867066 -.00000247  00000+0  00000+0 0  9991
2 44231   1.6278  72.8961 0003705 179.1552  19.7819  1.00272286 17458
BEIDOU-3 IGSO-2 (C39)   
1 44337U 19035A   24039.76440897 -.00000158  00000+0  00000+0 0  9995
2 44337  55.1702 166.4047 0031871 202.0406 164.5635  1.00280973 17058
BEIDOU-3 M24 (C46)      
1 44542U 19061A   24038.50513747  .00000089  00000+0  00000+0 0  9990
2 44542  54.4620 211.7745 0008404  12.8060 347.2065  1.86231186 29769
BEIDOU-3 M23 (C45)      
1 44543U 19061B   24037.29770824  .00000103  00000+0  00000+0 0  9994
2 44543  54.4606 211.7847 0005169  11.8821 170.6864  1.86231631 29744
BEIDOU-3 IGSO-3 (C40)   
1 44709U 19073A   24039.09407105 -.00000147  00000+0  00000+0 0  9999
2 44709  56.2681 290.1008 0034952 180.9817 179.1214  1.00289266 15837
BEIDOU-3 M22 (C44)      
1 44793U 19078A   24039.42473610 -.00000069  00000+0  00000+0 0  9991
2 44793  54.6556 329.8669 0007011  13.0518 346.9841  1.86231850 28638
BEIDOU-3 M21 (C43)      
1 44794U 19078B   24039.55488058 -.00000069  00000+0  00000+0 0  9998
2 44794  54.6291 329.8412 0005034   4.5567 355.4660  1.86232369 28644
BEIDOU-3 M19 (C41)      
1 44864U 19090A   24039.26814896  .00000008  00000+0  00000+0 0  9993
2 44864  55.8230  91.3944 0019291 276.6103  84.4896  1.86231408 28224
BEIDOU-3 M20 (C42)      
1 44865U 19090B   24039.68660472  .00000010  00000+0  00000+0 0  9992
2 44865  55.8253  91.4136 0016861 288.1920  83.2260  1.86231362 28219
BEIDOU-3 G2 (C60)       
1 45344U 20017A   24039.89702094 -.00000140  00000+0  00000+0 0  9991
2 45344   2.1707  24.1104 0002401 270.0090 247.3218  1.00271796 14641
BEIDOU-3 G3 (C61)       
1 45807U 20040A   24039.91924104 -.00000353  00000+0  00000+0 0  9998
2 45807   0.6072  20.2446 0009145 294.7328 265.0113  1.00272489 13457
BEIDOU-3 G4             
1 56564U 23066A   24039.82855294 -.00000109  00000+0  00000+0 0  9993
2 56564   2.4475 288.2229 0002802 212.4734  96.0701  1.00270364  2770
BEIDOU-3 M25            
1 58654U 23207A   24039.63772820  .00000008  00000+0  00000+0 0  9991
2 58654  55.0048  91.4879 0004405 268.2180  91.8118  1.86231998   836
BEIDOU-3 M26            
1 58655U 23207B   24039.43638799  .00000007  00000+0  00000+0 0  9995
2 58655  55.0066  91.4800 0005419 255.7918 104.2276  1.86231438   818
